{"fetched_at":"2026-05-09T09:19:14Z","count":3525,"tles":[{"name":"BLOCK DM-SL R/B","line1":"1 25938U 99056B   26104.69233574 -.00000061  00000+0  00000+0 0  9994","line2":"2 25938   1.0504 350.8937 6473404  87.8266 338.7187  2.12161840205468","category":"Other"},{"name":"YAOGAN-30 06C","line1":"1 44451U 19045C   26128.32769547  .00002039  00000+0  15265-3 0  9994","line2":"2 44451  34.9928 212.4153 0000653 300.8479  59.2165 15.02493854370557","category":"Other"},{"name":"STARLINK-5309","line1":"1 55310U 23010AT  26128.26258782  .00000873  00000+0  80928-4 0  9997","line2":"2 55310  70.0001 214.3316 0003283 270.9077  89.1706 14.98324435182692","category":"Starlink"},{"name":"2024-205K","line1":"1 61903U 24205K   26128.29584865  .00011999  00000+0  41900-3 0  9993","line2":"2 61903  97.4107 205.3566 0010487 171.9474 188.1937 15.29681523 82547","category":"Other"},{"name":"STARLINK-6099","line1":"1 76099C 23090H   23185.73868056 -.00980145  00000-0 -61187-2 0  1858","line2":"2 76099  42.9989 214.5513 0001364 271.4648 149.1934 15.76892049    14","category":"Starlink"},{"name":"COSMOS 2251 DEB","line1":"1 37527U 93036BNG 23178.41801500  .00036170  00000+0  34472-2 0  9993","line2":"2 37527  73.9962  65.7675 0020888  94.6481 265.7088 14.93030716739566","category":"Other"},{"name":"STARLINK-3920","line1":"1 52575U 22051AR  26050.51927133  .11133850  12628-4  15628-3 0  9998","line2":"2 52575  53.1811 103.8024 0003585 301.4684  58.6017 16.48851971210190","category":"Starlink"},{"name":"FENGYUN 1C DEB","line1":"1 30557U 99025AKX 26104.09027500  .00001376  00000+0  76866-3 0  9993","line2":"2 30557  98.9071 173.3484 0066630 245.2350 114.1878 14.11385538980262","category":"Weather"},{"name":"FLOCK 4V-23","line1":"1 46737U 20061BM  23312.74299618  .10462062  24426-5  16014-2 0  9991","line2":"2 46737  97.3078  27.5768 0012074 289.8834  70.1161 16.33979317169757","category":"Other"},{"name":"STARLINK-5931","line1":"1 56785U 23078U   26128.28321620  .00000480  00000+0  48021-4 0  9994","line2":"2 56785  69.9996 194.3238 0003641 268.9228  91.1514 14.98328305162296","category":"Starlink"},{"name":"STARLINK-11580 [DTC]","line1":"1 63011U 25032G   26128.25102799  .00164097  00000+0  12574-2 0  9994","line2":"2 63011  42.9984 196.1083 0002553 286.8601  73.1987 15.70835179 71439","category":"Starlink"},{"name":"STARLINK-34317","line1":"1 64162U 25112S   26128.11035227  .00005862  00000+0  40997-3 0  9992","line2":"2 64162  97.5215 180.0557 0002742 136.1087 224.0359 15.05658609 52251","category":"Starlink"},{"name":"STARLINK-36123","line1":"1 67007U 25293E   26127.92773164  .00002073  00000+0  18142-3 0  9998","line2":"2 67007  70.0012 304.9928 0002571 269.0753  91.0111 14.98332976 23767","category":"Starlink"},{"name":"HULIANWANG DIGUI-75","line1":"1 65307U 25187C   26128.25875358 -.00000089  00000+0  76348-4 0  9995","line2":"2 65307  50.0105 348.8578 0000720  31.1642 328.9273 13.29321501 34393","category":"Other"},{"name":"SURCAL 159","line1":"1 02872U 67053F   26128.20777111  .00000080  00000+0  91373-4 0  9999","line2":"2 02872  69.9731  86.9162 0006888 190.9054 169.1905 13.99592900  4615","category":"Other"},{"name":"FIREBIRD 4","line1":"1 40378U 15003C   23212.85512266  .05342662  35843-5  12681-2 0  9992","line2":"2 40378  99.0595 187.0765 0005512 162.7751 197.3725 16.29625419471750","category":"Other"},{"name":"STARLINK-4508","line1":"1 53559U 22101AJ  26128.25002315  .01269638  00000+0  11824-1 0  9991","line2":"2 53559  53.2189 150.6099 0001098  77.7892  68.4602 15.64362343  5812","category":"Starlink"},{"name":"FLOCK 4BE-4","line1":"1 60482U 24149Q   25322.37674503  .07014755  24609-5  17463-2 0  9997","line2":"2 60482  97.3722  53.7154 0010960 281.9790  78.0275 16.28980800 70805","category":"Other"},{"name":"STARLINK-36996","line1":"1 68064U 26041AA  26128.25540670  .00025450  00000+0  66066-3 0  9997","line2":"2 68064  53.1586 132.0889 0001110  90.4050 269.7082 15.38841738 10526","category":"Starlink"},{"name":"STARLINK-2357","line1":"1 47897U 21021AP  23362.17025214  .00015698  00000+0  10607-2 0  9993","line2":"2 47897  53.0543 274.1984 0001685  68.3739 291.7429 15.06738917154762","category":"Starlink"},{"name":"STARLINK-30256","line1":"1 57522U 23115B   26128.03546047  .00002921  00000+0  11564-3 0  9994","line2":"2 57522  43.0052  26.7658 0001802 265.1169  94.9477 15.27581718151420","category":"Starlink"},{"name":"COSMOS 2251 DEB","line1":"1 34554U 93036UQ  26104.20706737  .00000470  00000+0  16286-3 0  9993","line2":"2 34554  74.0372  73.4414 0022058 112.4171 263.1579 14.38190257895165","category":"Other"},{"name":"STARLINK-3209","line1":"1 49752U 21115AE  26127.69691344  .00000339  00000+0  39401-4 0  9992","line2":"2 49752  53.2174 234.2365 0001221  93.9390 266.1742 15.08838930244581","category":"Starlink"},{"name":"STARLINK-31128","line1":"1 58669U 23211C   26128.24419790  .00000846  00000+0  40263-4 0  9994","line2":"2 58669  43.0010 108.8640 0001021 267.3677  92.7058 15.27589717131573","category":"Starlink"},{"name":"STARLINK-35806","line1":"1 66363U 25254R   26127.81643135  .00006138  00000+0  21916-3 0  9990","line2":"2 66363  53.1590 318.1426 0000836 106.5304 253.5789 15.30201568 28022","category":"Starlink"},{"name":"STARLINK-1014","line1":"1 44720U 19074H   23361.91011087 -.00000037  00000+0  16412-4 0  9998","line2":"2 44720  53.0532 190.4289 0001377  99.8225 260.2920 15.06403213227752","category":"Starlink"},{"name":"STARLINK-5531","line1":"1 55383U 23013BE  26127.80341242  .00000521  00000+0  28457-4 0  9992","line2":"2 55383  43.0023 314.8737 0001516 267.8675  92.2003 15.27573322180883","category":"Starlink"},{"name":"STARLINK-32518","line1":"1 61967U 24210J   26128.23213521  .00016261  00000+0  59879-3 0  9992","line2":"2 61967  43.0007 196.6703 0001490 259.7671 100.3013 15.27597587 83968","category":"Starlink"},{"name":"STARLINK-6208","line1":"1 76208C 23083V   23172.25465278 -.00318180  00000-0 -24077-2 0  1721","line2":"2 76208  43.0039  90.6462 0001375 249.7798 114.9524 15.71772580    13","category":"Starlink"},{"name":"BREEZE-M R/B","line1":"1 37751U 11035D   26104.75289701 -.00000125  00000+0  00000+0 0  9992","line2":"2 37751   9.3122  34.7112 0771953  63.4258 128.6545  1.12713623 60665","category":"Other"},{"name":"STARLINK-3854","line1":"1 52648U 22052BC  26127.93884165  .00005667  00000+0  37421-3 0  9991","line2":"2 52648  53.2197 353.1413 0001483  92.3845 267.7317 15.08807410220079","category":"Starlink"},{"name":"STARLINK-31816","line1":"1 59742U 24090N   26128.24488299  .00002826  00000+0  11219-3 0  9991","line2":"2 59742  42.9996 207.5378 0001080 260.7988  99.2741 15.27580443112521","category":"Starlink"},{"name":"FENGYUN 1C DEB","line1":"1 30655U 99025APM 23178.90707259  .00011118  00000+0  35425-2 0  9996","line2":"2 30655  98.7962 165.5220 0020903 142.7830 274.7940 14.39830108847023","category":"Weather"},{"name":"2023-081D","line1":"1 56849U 23081D   23362.43155473  .00021144  00000+0  75349-3 0  9996","line2":"2 56849  97.3963  74.4482 0010764 297.8365  62.1784 15.28888733 31115","category":"Other"},{"name":"ZHONGXING-10R","line1":"1 63075U 25036A   26128.13378263 -.00000344  00000+0  00000+0 0  9999","line2":"2 63075   0.0475 254.7913 0002239 240.0262 249.8629  1.00271463  4550","category":"Other"},{"name":"STARLINK-34167","line1":"1 64228U 25117AB  26128.24223863  .00014406  00000+0  43657-3 0  9999","line2":"2 64228  53.1613 122.2614 0001311  91.3269 268.7883 15.34408068 53680","category":"Starlink"},{"name":"KZ-11 R/B","line1":"1 67071U 25296C   25358.32930095  .10609436  77667-5  38975-3 0  9991","line2":"2 67071  41.3001  37.0775 0331507  35.4688 326.7718 15.73894626  1695","category":"Other"},{"name":"STARLINK-34869","line1":"1 65371U 25190W   26127.98316834  .00019303  00000+0  66168-3 0  9994","line2":"2 65371  53.1594 252.7386 0001026 107.2715 252.8398 15.30224255 38834","category":"Starlink"},{"name":"OPS 6157 (DSP 4)","line1":"1 06691U 73040A   26105.03612266 -.00000278  00000+0  00000+0 0  9992","line2":"2 06691   1.0354 228.5987 0007408  70.1213  26.6027  0.99817805 25312","category":"Other"},{"name":"CZ-3C DEB","line1":"1 40818U 10057AK  26100.68026519 -.00000011  00000+0  28476-3 0  9992","line2":"2 40818  19.9629 118.5606 7134989 120.8056 327.3541  2.25731990 91451","category":"Other"},{"name":"STARLINK-4606","line1":"1 53632U 22104AW  26128.02853512  .00000005  00000+0  18420-4 0  9996","line2":"2 53632  53.2177 317.7227 0001222  87.5992 272.5140 15.08833225205186","category":"Starlink"},{"name":"ICEYE-X39","line1":"1 60546U 24149CG  26128.17935972  .00002661  00000+0  22047-3 0  9995","line2":"2 60546  97.6828 205.7441 0001960 180.9291 179.1929 14.99689885 94123","category":"Other"},{"name":"FIREFLY ALPHA R/B","line1":"1 68128U 26046B   26101.44210219  .00030552  00000+0  39636-3 0  9990","line2":"2 68128 123.0914 349.5186 0018215  42.3965 317.8500 15.58451804  4749","category":"Other"},{"name":"FENGYUN 1C DEB","line1":"1 31609U 99025BZP 26104.58562005  .00002074  00000+0  10188-2 0  9990","line2":"2 31609  99.1995 142.2958 0089478 334.2139 179.8143 14.16811969678230","category":"Weather"},{"name":"STARLINK-2325","line1":"1 47979U 21024C   23362.04883924  .00015276  00000+0  10418-2 0  9995","line2":"2 47979  53.0549 274.8280 0001639  81.3109 278.8065 15.06413928153976","category":"Starlink"},{"name":"STARLINK-30328","line1":"1 57638U 23122G   26128.21769006 -.00000876  00000+0 -22333-4 0  9998","line2":"2 57638  43.0028 105.0013 0001608 276.8598  83.2070 15.27566448151452","category":"Starlink"},{"name":"COSMOS 2251 DEB","line1":"1 34722U 93036YQ  26104.09188745  .00001088  00000+0  53442-3 0  9991","line2":"2 34722  73.8683 117.8104 0162416  20.0060  36.8360 14.12253941879726","category":"Other"},{"name":"STARLINK-3283","line1":"1 50179U 21125Z   26127.97655261  .00000050  00000+0  21259-4 0  9999","line2":"2 50179  53.2189 342.9708 0001304  88.3485 271.7656 15.08838828245555","category":"Starlink"}]}